NORAD_CAT_ID,OBJECT_NAME,OBJECT_TYPE,EPOCH,MEAN_MOTION,ECCENTRICITY,INCLINATION,RA_OF_ASC_NODE,ARG_OF_PERICENTER,MEAN_ANOMALY,BSTAR,MEAN_MOTION_DOT,MEAN_MOTION_DDOT,TLE_LINE0,TLE_LINE1,TLE_LINE2,SEMIMAJOR_AXIS,PERIOD,APOGEE,PERIGEE,DECAYED
53616.0,STARLINK-4605,PAYLOAD,2022-12-08 17:46:55,15.08844901,0.0001756,53.217,152.5385,67.8553,292.2626,0.00012327,1.675e-05,0.0,0 STARLINK-4605,1 53616U 22104AE  22342.74091846  .00001675  00000-0  12327-3 0  9999,2 53616  53.2170 152.5385 0001756  67.8553 292.2626 15.08844901 16694,6917.865,95.437,540.945,538.516,0.0
53616.0,STARLINK-4605,PAYLOAD,2022-12-09 00:08:28,15.08837906,0.0001996,53.2167,151.3494,60.0019,300.1171,6.3238e-06,-1.88e-06,0.0,0 STARLINK-4605,1 53616U 22104AE  22343.00588503 -.00000188  00000-0  63238-5 0  9998,2 53616  53.2167 151.3494 0001996  60.0019 300.1171 15.08837906 16057,6917.887,95.438,541.133,538.371,0.0
53616.0,STARLINK-4605,PAYLOAD,2022-12-09 11:16:11,15.08823431,0.0001911,53.2168,149.2707,6.4513,353.6504,-0.00020358,-3.525e-05,0.0,0 STARLINK-4605,1 53616U 22104AE  22343.46957910 -.00003525  00000-0 -20358-3 0  9993,2 53616  53.2168 149.2707 0001911   6.4513 353.6504 15.08823431 16120,6917.931,95.439,541.118,538.474,0.0
53616.0,STARLINK-4605,PAYLOAD,2022-12-10 14:17:45,15.08776853,9.95e-05,53.217,144.2159,219.9057,140.1862,0.00065808,0.00010183,0.0,0 STARLINK-4605,1 53616U 22104AE  22344.59566031  .00010183  00000-0  65808-3 0  9993,2 53616  53.2170 144.2159 0000995 219.9057 140.1862 15.08776853 16978,6918.073,95.442,540.627,539.25,0.0
53616.0,STARLINK-4605,PAYLOAD,2022-12-10 17:28:32,15.08812898,0.0001325,53.2174,143.6222,92.3044,267.81,-0.00041221,-6.837e-05,0.0,0 STARLINK-4605,1 53616U 22104AE  22344.72815782 -.00006837  00000-0 -41221-3 0  9994,2 53616  53.2174 143.6222 0001325  92.3044 267.8100 15.08812898 16997,6917.9630000000025,95.439,540.745,538.9119999999998,0.0
53616.0,STARLINK-4605,PAYLOAD,2022-12-10 22:14:47,15.08734928,0.0001484,53.2174,142.7305,51.312,308.8005,-0.00092857,-0.00014993,0.0,0 STARLINK-4605,1 53616U 22104AE  22344.92694124 -.00014993  00000-0 -92857-3 0  9994,2 53616  53.2174 142.7305 0001484  51.3120 308.8005 15.08734928 16341,6918.2019999999975,95.444,541.0930000000002,539.04,0.0
53616.0,STARLINK-4605,PAYLOAD,2022-12-11 10:57:44,15.08866733,9.13e-05,53.2175,140.3496,18.6714,341.4312,-0.00040942,-6.802e-05,0.0,0 STARLINK-4605,1 53616U 22104AE  22345.45676169 -.00006802  00000-0 -40942-3 0  9990,2 53616  53.2175 140.3496 0000913  18.6714 341.4312 15.08866733 16421,6917.799,95.436,540.295,539.0319999999998,0.0
53616.0,STARLINK-4605,PAYLOAD,2022-12-11 20:30:03,15.08839847,0.0002076,53.2173,138.5631,62.3232,297.797,0.00020685,3.005e-05,0.0,0 STARLINK-4605,1 53616U 22104AE  22345.85420601  .00003005  00000-0  20685-3 0  9994,2 53616  53.2173 138.5631 0002076  62.3232 297.7970 15.08839847 16487,6917.880999999999,95.438,541.182,538.31,0.0
53616.0,STARLINK-4605,PAYLOAD,2022-12-12 10:48:32,15.08838041,0.0001533,53.2176,135.885,71.1358,288.98,7.3473e-05,8.81e-06,0.0,0 STARLINK-4605,1 53616U 22104AE  22346.45037097  .00000881  00000-0  73473-4 0  9997,2 53616  53.2176 135.8850 0001533  71.1358 288.9800 15.08838041 16576,6917.886,95.438,540.812,538.691,0.0
53616.0,STARLINK-4605,PAYLOAD,2022-12-13 10:39:19,15.08824185,0.0001523,53.2171,131.4251,71.4598,288.656,0.00018164,2.603e-05,0.0,0 STARLINK-4605,1 53616U 22104AE  22347.44397774  .00002603  00000-0  18164-3 0  9997,2 53616  53.2171 131.4251 0001523  71.4598 288.6560 15.08824185 16727,6917.929,95.439,540.847,538.74,0.0
53616.0,STARLINK-4605,PAYLOAD,2022-12-13 17:00:51,15.08843817,0.0001652,53.2174,130.2358,72.2187,287.8986,-1.0853e-05,-4.61e-06,0.0,0 STARLINK-4605,1 53616U 22104AE  22347.70893014 -.00000461  00000-0 -10853-4 0  9994,2 53616  53.2174 130.2358 0001652  72.2187 287.8986 15.08843817 16761,6917.869000000002,95.437,540.877,538.591,0.0
53616.0,STARLINK-4605,PAYLOAD,2022-12-13 20:11:38,15.08840871,0.0001613,53.217,129.6411,65.8389,294.2772,-2.1766e-05,-6.34e-06,0.0,0 STARLINK-4605,1 53616U 22104AE  22347.84141214 -.00000634  00000-0 -21766-4 0  9994,2 53616  53.2170 129.6411 0001613  65.8389 294.2772 15.08840871 17468,6917.878000000002,95.437,540.859,538.627,0.0
53616.0,STARLINK-4605,PAYLOAD,2022-12-14 16:51:38,15.08840708,0.000154,53.2166,125.7752,63.0935,297.0215,5.6318e-05,6.08e-06,0.0,0 STARLINK-4605,1 53616U 22104AE  22348.70252691  .00000608  00000-0  56318-4 0  9992,2 53616  53.2166 125.7752 0001540  63.0935 297.0215 15.08840708 17590,6917.878000000002,95.438,540.809,538.678,0.0
53616.0,STARLINK-4605,PAYLOAD,2022-12-15 02:23:58,15.08829772,0.0001568,53.2165,123.9911,61.6082,298.5068,-3.1072e-05,-7.82e-06,0.0,0 STARLINK-4605,1 53616U 22104AE  22349.09997723 -.00000782  00000-0 -31072-4 0  9992,2 53616  53.2165 123.9911 0001568  61.6082 298.5068 15.08829772 16974,6917.9119999999975,95.438,540.861,538.692,0.0
53616.0,STARLINK-4605,PAYLOAD,2022-12-15 13:31:39,15.08835413,0.0001198,53.2151,121.908,50.7225,309.3873,2.6517e-05,1.34e-06,0.0,0 STARLINK-4605,1 53616U 22104AE  22349.56365048  .00000134  00000-0  26517-4 0  9990,2 53616  53.2151 121.9080 0001198  50.7225 309.3873 15.08835413 17729,6917.894,95.438,540.5880000000002,538.931,0.0
53616.0,STARLINK-4605,PAYLOAD,2022-12-15 15:07:02,15.08843335,0.0001601,53.2159,121.6116,58.209,301.9057,2.5672e-05,1.21e-06,0.0,0 STARLINK-4605,1 53616U 22104AE  22349.62988807  .00000121  00000-0  25672-4 0  9998,2 53616  53.2159 121.6116 0001601  58.2090 301.9057 15.08843335 17056,6917.87,95.437,540.8430000000002,538.628,0.0
53616.0,STARLINK-4605,PAYLOAD,2022-12-15 18:17:48,15.08847107,0.0001644,53.217,121.0173,58.7701,301.3452,5.6208e-05,6.07e-06,0.0,0 STARLINK-4605,1 53616U 22104AE  22349.76236420  .00000607  00000-0  56208-4 0  9998,2 53616  53.2170 121.0173 0001644  58.7701 301.3452 15.08847107 17758,6917.859,95.437,540.861,538.586,0.0
53616.0,STARLINK-4605,PAYLOAD,2022-12-16 13:22:26,15.08838507,0.0001494,53.2179,117.448,61.1078,299.0064,-2.9406e-05,-7.56e-06,0.0,0 STARLINK-4605,1 53616U 22104AE  22350.55725111 -.00000756  00000-0 -29406-4 0  9994,2 53616  53.2179 117.4480 0001494  61.1078 299.0064 15.08838507 17199,6917.885,95.438,540.783,538.716,0.0
53616.0,STARLINK-4605,PAYLOAD,2022-12-16 19:43:59,15.08837263,0.0001628,53.2178,116.2588,57.9649,302.1501,-1.8127e-05,-5.76e-06,0.0,0 STARLINK-4605,1 53616U 22104AE  22350.82221187 -.00000576  00000-0 -18127-4 0  9996,2 53616  53.2178 116.2588 0001628  57.9649 302.1501 15.08837263 17910,6917.889,95.438,540.88,538.628,0.0
53616.0,STARLINK-4605,PAYLOAD,2022-12-17 13:13:13,15.0883668,0.0001905,53.2178,112.9884,63.0235,297.0951,-4.114e-05,-9.43e-06,0.0,0 STARLINK-4605,1 53616U 22104AE  22351.55085613 -.00000943  00000-0 -41140-4 0  9998,2 53616  53.2178 112.9884 0001905  63.0235 297.0951 15.08836680 18025,6917.891,95.438,541.073,538.438,0.0
53616.0,STARLINK-4605,PAYLOAD,2022-12-17 14:48:37,15.08832352,0.0001525,53.218,112.6905,59.7872,300.3271,2.7249e-05,1.46e-06,0.0,0 STARLINK-4605,1 53616U 22104AE  22351.61709581  .00000146  00000-0  27249-4 0  9999,2 53616  53.2180 112.6905 0001525  59.7872 300.3271 15.08832352 17356,6917.904,95.438,540.8240000000002,538.714,0.0
53616.0,STARLINK-4605,PAYLOAD,2022-12-17 19:34:46,15.08842191,0.000158,53.218,111.7984,62.242,297.8732,-3.4877e-05,-8.43e-06,0.0,0 STARLINK-4605,1 53616U 22104AE  22351.81581174 -.00000843  00000-0 -34877-4 0  9998,2 53616  53.2180 111.7984 0001580  62.2420 297.8732 15.08842191 18065,6917.874,95.437,540.832,538.646,0.0
53616.0,STARLINK-4605,PAYLOAD,2022-12-18 11:28:37,15.08835581,0.000161,53.2179,108.8251,58.4794,301.6355,1.5868e-05,-3.5e-07,0.0,0 STARLINK-4605,1 53616U 22104AE  22352.47821479 -.00000035  00000-0  15868-4 0  9997,2 53616  53.2179 108.8251 0001610  58.4794 301.6355 15.08835581 18163,6917.894,95.438,540.873,538.645,0.0
53616.0,STARLINK-4605,PAYLOAD,2022-12-18 16:14:47,15.08828114,0.0001588,53.2177,107.9349,51.9847,308.1288,1.1175e-05,-1.1e-06,0.0,0 STARLINK-4605,1 53616U 22104AE  22352.67694040 -.00000110  00000-0  11175-4 0  9992,2 53616  53.2177 107.9349 0001588  51.9847 308.1288 15.08828114 17519,6917.917,95.438,540.88,538.683,0.0
53616.0,STARLINK-4605,PAYLOAD,2022-12-19 11:19:24,15.0883955,0.000158,53.2174,104.3668,47.1477,312.9648,2.4785e-05,1.06e-06,0.0,0 STARLINK-4605,1 53616U 22104AE  22353.47181694  .00000106  00000-0  24785-4 0  9992,2 53616  53.2174 104.3668 0001580  47.1477 312.9648 15.08839550 17631,6917.882,95.438,540.84,538.654,0.0
53616.0,STARLINK-4605,PAYLOAD,2022-12-19 14:30:10,15.08847249,0.0001602,53.2169,103.7734,46.183,313.9294,7.8902e-05,9.68e-06,0.0,0 STARLINK-4605,1 53616U 22104AE  22353.60429001  .00000968  00000-0  78902-4 0  9990,2 53616  53.2169 103.7734 0001602  46.1830 313.9294 15.08847249 18339,6917.858,95.437,540.831,538.615,0.0
53616.0,STARLINK-4605,PAYLOAD,2022-12-20 14:20:57,15.08847258,0.0001732,53.2181,99.3111,37.8753,322.2361,8.6519e-05,1.089e-05,0.0,0 STARLINK-4605,1 53616U 22104AE  22354.59788573  .00001089  00000-0  86519-4 0  9999,2 53616  53.2181  99.3111 0001732  37.8753 322.2361 15.08847258 18481,6917.858,95.437,540.9209999999998,538.525,0.0
53616.0,STARLINK-4605,PAYLOAD,2022-12-21 11:01:00,15.08828966,0.0001779,53.2178,95.446,52.0239,308.0914,-0.00016137,-2.855e-05,0.0,0 STARLINK-4605,1 53616U 22104AE  22355.45903018 -.00002855  00000-0 -16137-3 0  9990,2 53616  53.2178  95.4460 0001779  52.0239 308.0914 15.08828966 17930,6917.9140000000025,95.438,541.01,538.548,0.0
53616.0,STARLINK-4605,PAYLOAD,2022-12-21 23:44:04,15.08840314,0.0001862,53.218,93.066,46.4799,313.6348,-0.00011354,-2.095e-05,0.0,0 STARLINK-4605,1 53616U 22104AE  22355.98894340 -.00002095  00000-0 -11354-3 0  9997,2 53616  53.2180  93.0660 0001862  46.4799 313.6348 15.08840314 18014,6917.879,95.438,541.033,538.456,0.0
